NORAD_CAT_ID,OBJECT_NAME,OBJECT_TYPE,EPOCH,MEAN_MOTION,ECCENTRICITY,INCLINATION,RA_OF_ASC_NODE,ARG_OF_PERICENTER,MEAN_ANOMALY,BSTAR,MEAN_MOTION_DOT,MEAN_MOTION_DDOT,TLE_LINE0,TLE_LINE1,TLE_LINE2,SEMIMAJOR_AXIS,PERIOD,APOGEE,PERIGEE,DECAYED
55754.0,STARLINK-5612,PAYLOAD,2023-11-12 18:43:45,14.98328415,0.0002685,69.9999,222.25,268.4563,91.6288,6.0397e-05,6.28e-06,0.0,0 STARLINK-5612,1 55754U 23028P   23316.78039325  .00000628  00000-0  60397-4 0  9998,2 55754  69.9999 222.2500 0002685 268.4563  91.6288 14.98328415 39031,6950.198,96.107,573.929,570.197,0.0
55754.0,STARLINK-5612,PAYLOAD,2023-11-12 21:56:01,14.98332277,0.0002608,70.0005,221.9133,271.0666,89.0194,0.00012394,1.386e-05,0.0,0 STARLINK-5612,1 55754U 23028P   23316.91390925  .00001386  00000-0  12394-3 0  9994,2 55754  70.0005 221.9133 0002608 271.0666  89.0194 14.98332277 39059,6950.186,96.107,573.863,570.238,0.0
55754.0,STARLINK-5612,PAYLOAD,2023-11-13 02:44:25,14.98341489,0.000242,70.0004,221.4071,271.1494,88.9387,0.00022206,2.558e-05,0.0,0 STARLINK-5612,1 55754U 23028P   23317.11417926  .00002558  00000-0  22206-3 0  9993,2 55754  70.0004 221.4071 0002420 271.1494  88.9387 14.98341489 39086,6950.157,96.106,573.704,570.34,0.0
55754.0,STARLINK-5612,PAYLOAD,2023-11-13 04:20:33,14.9834017,0.0002328,69.9997,221.238,268.9292,91.1601,0.00018968,2.172e-05,0.0,0 STARLINK-5612,1 55754U 23028P   23317.18094032  .00002172  00000-0  18968-3 0  9991,2 55754  69.9997 221.2380 0002328 268.9292  91.1601 14.98340170 39094,6950.161,96.106,573.644,570.408,0.0
55754.0,STARLINK-5612,PAYLOAD,2023-11-14 02:46:27,14.9832786,0.0002791,69.9999,218.8837,268.6173,91.4667,-8.642e-05,-1.124e-05,0.0,0 STARLINK-5612,1 55754U 23028P   23318.11559302 -.00001124  00000-0 -86420-4 0  9998,2 55754  69.9999 218.8837 0002791 268.6173  91.4667 14.98327860 39236,6950.2,96.107,574.004,570.125,0.0
55754.0,STARLINK-5612,PAYLOAD,2023-11-14 10:47:07,14.9832822,0.0002954,69.9995,218.0419,270.6803,89.4017,-0.00011637,-1.481e-05,0.0,0 STARLINK-5612,1 55754U 23028P   23318.44939346 -.00001481  00000-0 -11637-3 0  9997,2 55754  69.9995 218.0419 0002954 270.6803  89.4017 14.98328220 39286,6950.198,96.107,574.116,570.01,0.0
55754.0,STARLINK-5612,PAYLOAD,2023-11-15 02:48:27,14.98330644,0.0002972,69.9997,216.3591,273.9078,86.1742,-2.6974e-05,-4.15e-06,0.0,0 STARLINK-5612,1 55754U 23028P   23319.11699063 -.00000415  00000-0 -26974-4 0  9998,2 55754  69.9997 216.3591 0002972 273.9078  86.1742 14.98330644 39383,6950.191,96.107,574.121,569.99,0.0
55754.0,STARLINK-5612,PAYLOAD,2023-11-16 02:50:29,14.98313746,0.0002823,69.9996,213.8337,271.5763,88.5073,-6.96e-05,-9.23e-06,0.0,0 STARLINK-5612,1 55754U 23028P   23320.11840072 -.00000923  00000-0 -69600-4 0  9995,2 55754  69.9996 213.8337 0002823 271.5763  88.5073 14.98313746 39536,6950.243,96.108,574.07,570.146,0.0
55754.0,STARLINK-5612,PAYLOAD,2023-11-17 02:52:32,14.98288494,0.0002851,69.9989,211.3094,273.6936,86.3896,0.00014746,1.665e-05,0.0,0 STARLINK-5612,1 55754U 23028P   23321.11982100  .00001665  00000-0  14746-3 0  9997,2 55754  69.9989 211.3094 0002851 273.6936  86.3896 14.98288494 39683,6950.321,96.11,574.168,570.205,0.0
55754.0,STARLINK-5612,PAYLOAD,2023-11-17 15:41:35,14.9832125,0.0003203,69.9998,209.9615,268.6272,91.452,0.00020873,2.398e-05,0.0,0 STARLINK-5612,1 55754U 23028P   23321.65387947  .00002398  00000-0  20873-3 0  9996,2 55754  69.9998 209.9615 0003203 268.6272  91.4520 14.98321250 39762,6950.22,96.108,574.311,569.859,0.0
55754.0,STARLINK-5612,PAYLOAD,2023-11-18 02:54:30,14.98370732,0.0003095,69.9997,208.784,270.0913,89.9891,-0.00033835,-4.132e-05,0.0,0 STARLINK-5612,1 55754U 23028P   23322.12118574 -.00004132  00000-0 -33835-3 0  9999,2 55754  69.9997 208.7840 0003095 270.0913  89.9891 14.98370732 39836,6950.067,96.104,574.083,569.781,0.0
55754.0,STARLINK-5612,PAYLOAD,2023-11-18 09:19:02,14.98368416,0.0003054,70.0,208.1105,271.3639,88.717,-0.00038038,-4.633e-05,0.0,0 STARLINK-5612,1 55754U 23028P   23322.38822308 -.00004633  00000-0 -38038-3 0  9990,2 55754  70.0000 208.1105 0003054 271.3639  88.7170 14.98368416 39873,6950.074,96.105,574.062,569.817,0.0
55754.0,STARLINK-5612,PAYLOAD,2023-11-18 15:43:35,14.98346012,0.0002762,70.0003,207.4382,273.0696,87.0147,2.5435e-05,2.11e-06,0.0,0 STARLINK-5612,1 55754U 23028P   23322.65527492  .00000211  00000-0  25435-4 0  9990,2 55754  70.0003 207.4382 0002762 273.0696  87.0147 14.98346012 39911,6950.143,96.106,573.928,570.089,0.0
55754.0,STARLINK-5612,PAYLOAD,2023-11-19 09:21:04,14.98342633,0.0002727,70.0002,205.5868,273.5579,86.5269,-2.109e-05,-3.45e-06,0.0,0 STARLINK-5612,1 55754U 23028P   23323.38963021 -.00000345  00000-0 -21090-4 0  9996,2 55754  70.0002 205.5868 0002727 273.5579  86.5269 14.98342633 40022,6950.154,96.106,573.914,570.124,0.0
55754.0,STARLINK-5612,PAYLOAD,2023-11-19 18:57:52,14.98341462,0.0002734,70.0001,204.577,272.4367,87.6479,-7.4746e-05,-9.85e-06,0.0,0 STARLINK-5612,1 55754U 23028P   23323.79018881 -.00000985  00000-0 -74746-4 0  9992,2 55754  70.0001 204.5770 0002734 272.4367  87.6479 14.98341462 40083,6950.157,96.106,573.923,570.122,0.0
55754.0,STARLINK-5612,PAYLOAD,2023-11-19 22:10:08,14.98341807,0.0002841,69.9995,204.2397,270.7241,89.3592,-7.7901e-05,-1.023e-05,0.0,0 STARLINK-5612,1 55754U 23028P   23323.92370726 -.00001023  00000-0 -77901-4 0  9996,2 55754  69.9995 204.2397 0002841 270.7241  89.3592 14.98341807 40106,6950.156,96.106,573.996,570.047,0.0
55754.0,STARLINK-5612,PAYLOAD,2023-11-20 09:23:04,14.98339343,0.0002907,69.9993,203.0618,271.6187,88.4639,-0.00010493,-1.345e-05,0.0,0 STARLINK-5612,1 55754U 23028P   23324.39102590 -.00001345  00000-0 -10493-3 0  9999,2 55754  69.9993 203.0618 0002907 271.6187  88.4639 14.98339343 40170,6950.164,96.106,574.049,570.009,0.0
55754.0,STARLINK-5612,PAYLOAD,2023-11-20 18:59:53,14.9833451,0.0002833,69.9991,202.0515,272.6829,87.4006,-0.00010498,-1.345e-05,0.0,0 STARLINK-5612,1 55754U 23028P   23324.79158702 -.00001345  00000-0 -10498-3 0  9994,2 55754  69.9991 202.0515 0002833 272.6829  87.4006 14.98334510 40230,6950.179,96.107,574.013,570.075,0.0
55754.0,STARLINK-5612,PAYLOAD,2023-11-20 22:12:09,14.98334519,0.0002853,69.9994,201.7156,269.2454,90.8378,-0.00011508,-1.466e-05,0.0,0 STARLINK-5612,1 55754U 23028P   23324.92510663 -.00001466  00000-0 -11508-3 0  9994,2 55754  69.9994 201.7156 0002853 269.2454  90.8378 14.98334519 40259,6950.179,96.107,574.027,570.061,0.0
55754.0,STARLINK-5612,PAYLOAD,2023-11-21 09:25:05,14.98335297,0.0002771,69.9991,200.5365,279.731,80.3536,-0.00014776,-1.856e-05,0.0,0 STARLINK-5612,1 55754U 23028P   23325.39242584 -.00001856  00000-0 -14776-3 0  9993,2 55754  69.9991 200.5365 0002771 279.7310  80.3536 14.98335297 40323,6950.177,96.107,573.967,570.116,0.0
55754.0,STARLINK-5612,PAYLOAD,2023-11-21 20:38:02,14.98326095,0.0002856,69.9991,199.3589,270.6922,89.3909,-6.2994e-05,-8.44e-06,0.0,0 STARLINK-5612,1 55754U 23028P   23325.85974887 -.00000844  00000-0 -62994-4 0  9994,2 55754  69.9991 199.3589 0002856 270.6922  89.3909 14.98326095 40395,6950.205,96.107,574.055,570.085,0.0
55754.0,STARLINK-5612,PAYLOAD,2023-11-22 01:26:26,14.98330629,0.000272,69.9991,198.8535,265.6833,94.4015,1.959e-06,-7e-07,0.0,0 STARLINK-5612,1 55754U 23028P   23326.06002409 -.00000070  00000-0  19590-5 0  9995,2 55754  69.9991 198.8535 0002720 265.6833  94.4015 14.98330629 40422,6950.191,96.107,573.946,570.165,0.0
55754.0,STARLINK-5612,PAYLOAD,2023-11-22 20:40:02,14.98330046,0.0002877,69.9988,196.8338,268.8623,91.2206,4.461e-05,4.39e-06,0.0,0 STARLINK-5612,1 55754U 23028P   23326.86114292  .00000439  00000-0  44610-4 0  9995,2 55754  69.9988 196.8338 0002877 268.8623  91.2206 14.98330046 40545,6950.193,96.107,574.057,570.058,0.0
55754.0,STARLINK-5612,PAYLOAD,2023-11-23 01:28:26,14.98334698,0.0002641,69.9995,196.3304,264.6488,95.4369,5.3981e-05,5.51e-06,0.0,0 STARLINK-5612,1 55754U 23028P   23327.06141934  .00000551  00000-0  53981-4 0  9997,2 55754  69.9995 196.3304 0002641 264.6488  95.4369 14.98334698 40579,6950.178,96.107,573.879,570.208,0.0
55754.0,STARLINK-5612,PAYLOAD,2023-11-23 14:17:31,14.98326746,0.0002365,70.0005,194.9839,261.4582,98.6309,3.8215e-05,3.63e-06,0.0,0 STARLINK-5612,1 55754U 23028P   23327.59550501  .00000363  00000-0  38215-4 0  9993,2 55754  70.0005 194.9839 0002365 261.4582  98.6309 14.98326746 40657,6950.203,96.107,573.712,570.424,0.0
55754.0,STARLINK-5612,PAYLOAD,2023-11-23 19:05:56,14.983227,0.0002462,70.0004,194.4775,263.4648,96.6231,-1.8081e-05,-3.09e-06,0.0,0 STARLINK-5612,1 55754U 23028P   23327.79579002 -.00000309  00000-0 -18081-4 0  9993,2 55754  70.0004 194.4775 0002462 263.4648  96.6231 14.98322700 40684,6950.215,96.107,573.792,570.369,0.0
55754.0,STARLINK-5612,PAYLOAD,2023-11-23 22:18:12,14.9831481,0.0002649,69.9999,194.1413,260.6686,99.4174,2.5448e-05,2.11e-06,0.0,0 STARLINK-5612,1 55754U 23028P   23327.92931428  .00000211  00000-0  25448-4 0  9997,2 55754  69.9999 194.1413 0002649 260.6686  99.4174 14.98314810 40701,6950.24,96.108,573.946,570.264,0.0
55754.0,STARLINK-5612,PAYLOAD,2023-11-24 14:19:33,14.98329014,0.0003091,69.9981,192.4564,274.1474,85.9332,-6.6158e-05,-8.82e-06,0.0,0 STARLINK-5612,1 55754U 23028P   23328.59691049 -.00000882  00000-0 -66158-4 0  9992,2 55754  69.9981 192.4564 0003091 274.1474  85.9332 14.98329014 40806,6950.196,96.107,574.209,569.913,0.0
55754.0,STARLINK-5612,PAYLOAD,2023-11-24 19:07:56,14.98332586,0.0002935,69.9983,191.9521,268.4566,91.6257,-2.8571e-05,-4.34e-06,0.0,0 STARLINK-5612,1 55754U 23028P   23328.79718675 -.00000434  00000-0 -28571-4 0  9999,2 55754  69.9983 191.9521 0002935 268.4566  91.6257 14.98332586 40830,6950.185,96.107,574.09,570.01,0.0
55754.0,STARLINK-5612,PAYLOAD,2023-11-24 22:20:12,14.98332499,0.0002351,69.9995,191.6159,255.739,104.3508,1.0005e-05,2.6e-07,0.0,0 STARLINK-5612,1 55754U 23028P   23328.93070574  .00000026  00000-0  10005-4 0  9992,2 55754  69.9995 191.6159 0002351 255.7390 104.3508 14.98332499 40859,6950.185,96.107,573.684,570.416,0.0
